COSMOS 2251 DEB         
1 37101U 93036BFX 26060.99961763  .00005702  00000+0  10266-2 0  9997
2 37101  74.0339 301.2001 0041685   5.5095 354.6523 14.66239686668330
COSMOS 2251 DEB         
1 37108U 93036BGE 26065.01977661  .00003083  00000+0  90113-3 0  9996
2 37108  74.0423 286.3140 0091169 341.6122  18.1744 14.42037421867071
COSMOS 2251 DEB         
1 37126U 93036BGY 26060.06503348  .00001671  00000+0  23487-3 0  9994
2 37126  73.9501 201.0621 0120701  60.0186 301.2902 14.73348638 92522
COSMOS 2251 DEB         
1 37270U 93036BHJ 26064.75860663  .00007982  00000+0  63125-2 0  9993
2 37270  73.9359 200.3153 0395288 197.3362 161.3930 13.60645383781982
COSMOS 2251 DEB         
1 37278U 93036BHS 26062.73774484  .00002617  00000+0  87851-3 0  9995
2 37278  73.7837 203.0888 0298143  11.0810  47.5735 14.15529534649752
COSMOS 2251 DEB         
1 37280U 93036BHU 26060.59185413  .00002241  00000+0  98092-3 0  9990
2 37280  74.0295 276.0526 0130704  25.3733 335.3752 14.19820470584422
COSMOS 2251 DEB         
1 37284U 93036BHY 26036.33008685  .00003683  00000+0  17497-2 0  9994
2 37284  74.0143  60.0665 0163535 200.9081 178.3706 14.13024671599465
COSMOS 2251 DEB         
1 37292U 93036BJG 26064.88127207  .00002559  00000+0  13453-2 0  9995
2 37292  74.1155 265.6865 0209448 247.5521 110.3315 14.03975440610153
COSMOS 2251 DEB         
1 37295U 93036BJK 26063.16396284  .00003913  00000+0  71054-3 0  9998
2 37295  74.0058 124.5875 0047299 282.9247  76.6641 14.65827607834976
COSMOS 2251 DEB         
1 37305U 93036BJV 26058.94233821  .00001655  00000+0  56672-3 0  9997
2 37305  73.8701 147.2753 0045491  91.3702 269.2662 14.36463826679750
COSMOS 2251 DEB         
1 37312U 93036BKC 26065.24837587  .00002208  00000+0  62013-3 0  9996
2 37312  74.0309  48.2545 0016544 139.6006 220.6384 14.46467089873714
COSMOS 2251 DEB         
1 37316U 93036BKG 26064.84302671  .00043988  00000+0  34642-2 0  9992
2 37316  74.0154 212.6976 0028817 269.6088  90.1796 15.00251349873876
COSMOS 2251 DEB         
1 37320U 93036BKL 26063.31586617  .00009928  00000+0  12919-2 0  9991
2 37320  74.0453  57.7112 0042841 126.9970 233.5140 14.80086181673535
COSMOS 2251 DEB         
1 37326U 93036BKS 26063.64288304  .00004020  00000+0  78747-3 0  9995
2 37326  74.0223 177.8214 0057465 286.2244  73.2604 14.62079551866806
COSMOS 2251 DEB         
1 37330U 93036BKW 26061.91400070  .00001448  00000+0  30214-3 0  9992
2 37330  74.0179 142.0073 0058757 327.9667  31.7931 14.59813983875381
COSMOS 2251 DEB         
1 37331U 93036BKX 26062.28229503  .00001539  00000+0  53582-3 0  9998
2 37331  74.0709 280.5438 0057135 274.4177  85.0449 14.35341419859152
COSMOS 2251 DEB         
1 37336U 93036BLC 26060.74528218  .00000214  00000+0  87721-4 0  9999
2 37336  74.0422 186.9768 0030832 248.0385 111.7488 14.32797950662511
COSMOS 2251 DEB         
1 37340U 93036BLG 26062.56055620  .00000578  00000+0  20330-3 0  9993
2 37340  74.0246 128.4565 0018867 212.4326 147.5669 14.37030951852289
COSMOS 2251 DEB         
1 37483U 93036BLL 26063.13605940  .00000856  00000+0  24702-3 0  9997
2 37483  73.9766 351.4501 0093009 180.6107 179.4952 14.43719961664545
COSMOS 2251 DEB         
1 37484U 93036BLM 26059.37516528  .00002353  00000+0  71600-3 0  9995
2 37484  73.8234  62.6448 0035259  82.7042 344.4944 14.42273965664980
COSMOS 2251 DEB         
1 37486U 93036BLP 26063.42827840  .00005634  00000+0  23066-2 0  9997
2 37486  73.6911 326.7587 0227758 182.8587 297.4551 14.14330827645242
COSMOS 2251 DEB         
1 37487U 93036BLQ 26063.25961308  .00059847  00000+0  66748-2 0  9996
2 37487  73.8994  29.2661 0031350 214.2069 145.7092 14.86349788824542
COSMOS 2251 DEB         
1 37491U 93036BLU 26062.88004152  .00001311  00000+0  96991-3 0  9991
2 37491  73.9058 138.0451 0311325 116.0197 247.3335 13.75579531568620
COSMOS 2251 DEB         
1 37496U 93036BLZ 26062.93633168  .00040267  00000+0  32977-2 0  9993
2 37496  73.9486 157.0620 0058139 151.7198 208.7166 14.97767409672310
COSMOS 2251 DEB         
1 37498U 93036BMB 26063.58223250  .00005510  00000+0  12704-2 0  9992
2 37498  74.0378  28.9155 0008546  73.5502 286.6600 14.55510056665453
COSMOS 2251 DEB         
1 37499U 93036BMC 26062.70391734  .00000567  00000+0  20978-3 0  9999
2 37499  74.0384 173.9605 0028841 234.3912 125.4553 14.34430165863102
COSMOS 2251 DEB         
1 37528U 93036BNH 26061.42039881  .00001784  00000+0  45857-3 0  9997
2 37528  74.0387 332.3560 0018974 102.0743 258.2545 14.50835322870867
COSMOS 2251 DEB         
1 37530U 93036BNK 26060.05493377  .00000697  00000+0  25487-3 0  9991
2 37530  74.0309 190.1826 0027237 236.3663 244.4638 14.34620892863557
COSMOS 2251 DEB         
1 37532U 93036BNM 26061.31097817  .00000817  00000+0  25375-3 0  9992
2 37532  74.0488  68.2344 0014699 159.9877 212.1898 14.42560018860630
COSMOS 2251 DEB         
1 37533U 93036BNN 26054.27047308  .00002324  00000+0  11315-2 0  9993
2 37533  74.0680  63.8898 0153847 103.9650 257.8652 14.12684231639456
COSMOS 2251 DEB         
1 37535U 93036BNQ 26064.01259625  .00003250  00000+0  69361-3 0  9999
2 37535  74.0210 276.6897 0026736  31.3975 118.9826 14.59080776865243
COSMOS 2251 DEB         
1 37537U 93036BNS 26060.49808476  .00000597  00000+0  20471-3 0  9993
2 37537  74.0106 119.9614 0052558 243.1985 116.3788 14.37608831861654
COSMOS 2251 DEB         
1 37546U 93036BPB 26063.64474007  .00019237  00000+0  23170-2 0  9991
2 37546  74.0193 295.9580 0006240 276.0837  83.9630 14.83821694671014
COSMOS 2251 DEB         
1 37959U 93036BPJ 26064.97250573  .00002769  00000+0  58644-3 0  9993
2 37959  74.0075 258.2541 0057020  18.3495 131.6589 14.58708879813405
COSMOS 2251 DEB         
1 37960U 93036BPK 26064.89396722  .00004120  00000+0  18420-2 0  9993
2 37960  74.0610  41.1215 0245009  39.4869 322.3838 14.08203939785769
COSMOS 2251 DEB         
1 37961U 93036BPL 26060.13227559  .00005085  00000+0  10829-2 0  9994
2 37961  74.0441 347.9439 0037959  47.2201 313.2146 14.58781491812083
COSMOS 2251 DEB         
1 37966U 93036BPR 26055.33149579  .00076101  00000+0  31189-2 0  9999
2 37966  73.9787  76.2838 0016682 284.1156  75.8189 15.23776337864592
COSMOS 2251 DEB         
1 37967U 93036BPS 26064.45192535  .00006293  00000+0  17092-2 0  9995
2 37967  74.0176 344.0233 0147386 103.5219 258.2407 14.41470809659273
COSMOS 2251 DEB         
1 37968U 93036BPT 26062.75182763  .00012410  00000+0  86960-3 0  9998
2 37968  73.9982 105.7002 0078449 203.8682 155.8863 15.02748901614351
COSMOS 2251 DEB         
1 37971U 93036BPW 26064.86831079  .00005578  00000+0  14132-2 0  9995
2 37971  73.9898 245.3982 0065701   2.4030 357.7432 14.49800666618824
COSMOS 2251 DEB         
1 37975U 93036BQA 26039.19051063  .00034176  00000+0  42950-2 0  9999
2 37975  73.9998 211.0646 0085951 187.2600 172.7340 14.79329439705940
COSMOS 2251 DEB         
1 37985U 93036BQL 26061.49147013  .00000138  00000+0  56909-4 0  9991
2 37985  74.0243 119.3586 0022346 227.9067 132.0186 14.35511115660614
COSMOS 2251 DEB         
1 37988U 93036BQP 26064.41317880  .00008692  00000+0  14057-2 0  9999
2 37988  74.0604 224.0982 0063794 241.9927 117.4781 14.70076650246106
COSMOS 2251 DEB         
1 37993U 93036BQU 26062.22234091  .00008451  00000+0  17195-2 0  9993
2 37993  74.0242  13.0752 0018320  83.7755 276.5497 14.61086862664928
COSMOS 2251 DEB         
1 37994U 93036BQV 26065.24369527  .00001078  00000+0  35088-3 0  9992
2 37994  74.0351 121.4693 0023100 188.9338 171.1410 14.39832029782661
COSMOS 2251 DEB         
1 37998U 93036BQZ 26057.79248836  .00001509  00000+0  43153-3 0  9997
2 37998  74.0356  93.2931 0018176 160.0603 200.1270 14.45833059653861
COSMOS 2251 DEB         
1 38001U 93036BRC 26064.71515112  .00006779  00000+0  86791-3 0  9996
2 38001  74.0027 328.6192 0062069  98.4251 292.5501 14.80140024759354
COSMOS 2251 DEB         
1 38054U 93036BRL 26064.37515808  .00002595  00000+0  22212-2 0  9997
2 38054  73.9518 130.5370 0348273  92.3523  31.4604 13.62936710683053
COSMOS 2251 DEB         
1 38055U 93036BRM 26064.91824726  .00006271  00000+0  84074-3 0  9990
2 38055  74.0089  43.2542 0063623 153.3398 237.1390 14.78170388619113
COSMOS 2251 DEB         
1 38060U 93036BRS 26061.19379288  .00002730  00000+0  50933-3 0  9994
2 38060  74.0431 142.7485 0059960 231.1694 128.4114 14.64353057731273
COSMOS 2251 DEB         
1 38062U 93036BRU 26052.59010594  .00023247  00000+0  19091-2 0  9997
2 38062  74.0061 146.9269 0017259 277.3195 147.2685 14.99001579640901
COSMOS 2251 DEB         
1 38064U 93036BRW 26064.16213471  .00004250  00000+0  93821-3 0  9991
2 38064  74.0244 327.5606 0044952  66.3025 294.2846 14.57002777730655
COSMOS 2251 DEB         
1 38067U 93036BRZ 26064.46447998  .00002003  00000+0  39585-3 0  9991
2 38067  74.0163 116.1304 0072197 244.4285 176.5020 14.61451796637649
COSMOS 2251 DEB         
1 38068U 93036BSA 26062.67617194  .00000937  00000+0  32931-3 0  9992
2 38068  74.0223 159.5074 0026913 233.2947 126.5734 14.36145559678087
COSMOS 2251 DEB         
1 38197U 93036BSM 26064.76750281  .00029983  00000+0  37052-2 0  9992
2 38197  73.9376 193.5346 0116302  49.2659 311.8542 14.77934954869802
COSMOS 2251 DEB         
1 38199U 93036BSP 26064.96153339  .00000614  00000+0  49548-3 0  9991
2 38199  73.9541 285.4289 0368752 195.7209 163.2209 13.64942357621571
COSMOS 2251 DEB         
1 38208U 93036BSY 26064.56202713  .00020334  00000+0  22227-2 0  9994
2 38208  74.0028 273.9509 0002684 334.5214  55.5069 14.87808201723899
COSMOS 2251 DEB         
1 38212U 93036BTC 26061.28397450  .00002754  00000+0  35745-3 0  9994
2 38212  74.0500 280.5392 0092975 325.3940  34.1205 14.78274571824859
COSMOS 2251 DEB         
1 38220U 93036BTL 26064.96147906  .00042797  00000+0  34301-2 0  9997
2 38220  74.0103 259.8781 0003211 226.5417 133.5503 14.99909335726159
